CCSDS_OMM_VERS = 2.0
CREATION_DATE  = 
ORIGINATOR     = 

OBJECT_NAME    = ATLAS CENTAUR R/B
OBJECT_ID      = 1972-065B
CENTER_NAME    = EARTH
REF_FRAME      = TEME
TIME_SYSTEM    = UTC
MEAN_ELEMENT_THEORY = SGP/SGP4

EPOCH          = 2025-11-30T05:23:48.360192
MEAN_MOTION    = 14.77354264
ECCENTRICITY   = .0034559
INCLINATION    = 34.9997
RA_OF_ASC_NODE = 168.5057
ARG_OF_PERICENTER = 254.0328
MEAN_ANOMALY   = 105.6563

EPHEMERIS_TYPE = 0
CLASSIFICATION_TYPE = U
NORAD_CAT_ID   = 6155
ELEMENT_SET_NO = 999
REV_AT_EPOCH   = 82654
BSTAR          = .16038E-3
MEAN_MOTION_DOT = .1147E-4
MEAN_MOTION_DDOT = 0

CCSDS_OMM_VERS = 2.0
CREATION_DATE  = 
ORIGINATOR     = 

OBJECT_NAME    = SL-8 R/B
OBJECT_ID      = 1975-112B
CENTER_NAME    = EARTH
REF_FRAME      = TEME
TIME_SYSTEM    = UTC
MEAN_ELEMENT_THEORY = SGP/SGP4

EPOCH          = 2025-11-30T02:24:56.846880
MEAN_MOTION    = 14.38132581
ECCENTRICITY   = .001634
INCLINATION    = 74.0596
RA_OF_ASC_NODE = 202.1053
ARG_OF_PERICENTER = 314.9554
MEAN_ANOMALY   = 45.0274

EPHEMERIS_TYPE = 0
CLASSIFICATION_TYPE = U
NORAD_CAT_ID   = 8459
ELEMENT_SET_NO = 999
REV_AT_EPOCH   = 61755
BSTAR          = .10896E-3
MEAN_MOTION_DOT = .305E-5
MEAN_MOTION_DDOT = 0

CCSDS_OMM_VERS = 2.0
CREATION_DATE  = 
ORIGINATOR     = 

OBJECT_NAME    = SL-3 R/B
OBJECT_ID      = 1977-057B
CENTER_NAME    = EARTH
REF_FRAME      = TEME
TIME_SYSTEM    = UTC
MEAN_ELEMENT_THEORY = SGP/SGP4

EPOCH          = 2025-11-30T02:35:15.599616
MEAN_MOTION    = 15.42501904
ECCENTRICITY   = .000649
INCLINATION    = 97.5682
RA_OF_ASC_NODE = 136.9482
ARG_OF_PERICENTER = 286.0009
MEAN_ANOMALY   = 74.0523

EPHEMERIS_TYPE = 0
CLASSIFICATION_TYPE = U
NORAD_CAT_ID   = 10114
ELEMENT_SET_NO = 999
REV_AT_EPOCH   = 65296
BSTAR          = .32268E-3
MEAN_MOTION_DOT = .13913E-3
MEAN_MOTION_DDOT = 0

CCSDS_OMM_VERS = 2.0
CREATION_DATE  = 
ORIGINATOR     = 

OBJECT_NAME    = SEASAT 1
OBJECT_ID      = 1978-064A
CENTER_NAME    = EARTH
REF_FRAME      = TEME
TIME_SYSTEM    = UTC
MEAN_ELEMENT_THEORY = SGP/SGP4

EPOCH          = 2025-11-29T17:54:22.845600
MEAN_MOTION    = 14.46037327
ECCENTRICITY   = .0001955
INCLINATION    = 108.0094
RA_OF_ASC_NODE = 275.7756
ARG_OF_PERICENTER = 251.0084
MEAN_ANOMALY   = 109.0850

EPHEMERIS_TYPE = 0
CLASSIFICATION_TYPE = U
NORAD_CAT_ID   = 10967
ELEMENT_SET_NO = 999
REV_AT_EPOCH   = 49206
BSTAR          = .15545E-3
MEAN_MOTION_DOT = .417E-5
MEAN_MOTION_DDOT = 0

CCSDS_OMM_VERS = 2.0
CREATION_DATE  = 
ORIGINATOR     = 

OBJECT_NAME    = SL-14 R/B
OBJECT_ID      = 1979-011B
CENTER_NAME    = EARTH
REF_FRAME      = TEME
TIME_SYSTEM    = UTC
MEAN_ELEMENT_THEORY = SGP/SGP4

EPOCH          = 2025-11-30T02:39:12.553344
MEAN_MOTION    = 14.91746406
ECCENTRICITY   = .0016984
INCLINATION    = 82.5244
RA_OF_ASC_NODE = 191.0211
ARG_OF_PERICENTER = 34.6347
MEAN_ANOMALY   = 325.5975

EPHEMERIS_TYPE = 0
CLASSIFICATION_TYPE = U
NORAD_CAT_ID   = 11267
ELEMENT_SET_NO = 999
REV_AT_EPOCH   = 51393
BSTAR          = .67665E-4
MEAN_MOTION_DOT = .709E-5
MEAN_MOTION_DDOT = 0

CCSDS_OMM_VERS = 2.0
CREATION_DATE  = 
ORIGINATOR     = 

OBJECT_NAME    = SL-8 R/B
OBJECT_ID      = 1979-089B
CENTER_NAME    = EARTH
REF_FRAME      = TEME
TIME_SYSTEM    = UTC
MEAN_ELEMENT_THEORY = SGP/SGP4

EPOCH          = 2025-11-30T00:05:57.624288
MEAN_MOTION    = 14.42269282
ECCENTRICITY   = .0014529
INCLINATION    = 74.0688
RA_OF_ASC_NODE = 275.5495
ARG_OF_PERICENTER = 115.3362
MEAN_ANOMALY   = 244.9301

EPHEMERIS_TYPE = 0
CLASSIFICATION_TYPE = U
NORAD_CAT_ID   = 11574
ELEMENT_SET_NO = 999
REV_AT_EPOCH   = 42173
BSTAR          = .10921E-3
MEAN_MOTION_DOT = .334E-5
MEAN_MOTION_DDOT = 0

CCSDS_OMM_VERS = 2.0
CREATION_DATE  = 
ORIGINATOR     = 

OBJECT_NAME    = SL-14 R/B
OBJECT_ID      = 1980-005B
CENTER_NAME    = EARTH
REF_FRAME      = TEME
TIME_SYSTEM    = UTC
MEAN_ELEMENT_THEORY = SGP/SGP4

EPOCH          = 2025-11-29T22:10:32.763648
MEAN_MOTION    = 14.90767268
ECCENTRICITY   = .0016927
INCLINATION    = 82.5159
RA_OF_ASC_NODE = 41.8526
ARG_OF_PERICENTER = 132.7026
MEAN_ANOMALY   = 227.5622

EPHEMERIS_TYPE = 0
CLASSIFICATION_TYPE = U
NORAD_CAT_ID   = 11672
ELEMENT_SET_NO = 999
REV_AT_EPOCH   = 46162
BSTAR          = .74315E-4
MEAN_MOTION_DOT = .757E-5
MEAN_MOTION_DDOT = 0

CCSDS_OMM_VERS = 2.0
CREATION_DATE  = 
ORIGINATOR     = 

OBJECT_NAME    = SL-8 R/B
OBJECT_ID      = 1981-003B
CENTER_NAME    = EARTH
REF_FRAME      = TEME
TIME_SYSTEM    = UTC
MEAN_ELEMENT_THEORY = SGP/SGP4

EPOCH          = 2025-11-30T02:51:53.358048
MEAN_MOTION    = 15.06440184
ECCENTRICITY   = .0281347
INCLINATION    = 82.9304
RA_OF_ASC_NODE = 21.8158
ARG_OF_PERICENTER = 163.8247
MEAN_ANOMALY   = 197.2201

EPHEMERIS_TYPE = 0
CLASSIFICATION_TYPE = U
NORAD_CAT_ID   = 12139
ELEMENT_SET_NO = 999
REV_AT_EPOCH   = 29966
BSTAR          = .66807E-3
MEAN_MOTION_DOT = .24925E-3
MEAN_MOTION_DDOT = 0

CCSDS_OMM_VERS = 2.0
CREATION_DATE  = 
ORIGINATOR     = 

OBJECT_NAME    = SL-3 R/B
OBJECT_ID      = 1981-046B
CENTER_NAME    = EARTH
REF_FRAME      = TEME
TIME_SYSTEM    = UTC
MEAN_ELEMENT_THEORY = SGP/SGP4

EPOCH          = 2025-11-30T02:01:22.599840
MEAN_MOTION    = 15.39217475
ECCENTRICITY   = .0019821
INCLINATION    = 81.2341
RA_OF_ASC_NODE = 49.0711
ARG_OF_PERICENTER = 8.5976
MEAN_ANOMALY   = 351.5601

EPHEMERIS_TYPE = 0
CLASSIFICATION_TYPE = U
NORAD_CAT_ID   = 12465
ELEMENT_SET_NO = 999
REV_AT_EPOCH   = 42309
BSTAR          = .34141E-3
MEAN_MOTION_DOT = .13401E-3
MEAN_MOTION_DDOT = 0

CCSDS_OMM_VERS = 2.0
CREATION_DATE  = 
ORIGINATOR     = 

OBJECT_NAME    = SL-3 R/B
OBJECT_ID      = 1981-103B
CENTER_NAME    = EARTH
REF_FRAME      = TEME
TIME_SYSTEM    = UTC
MEAN_ELEMENT_THEORY = SGP/SGP4

EPOCH          = 2025-11-30T02:05:55.099392
MEAN_MOTION    = 15.19995108
ECCENTRICITY   = .0011145
INCLINATION    = 81.1585
RA_OF_ASC_NODE = 330.1709
ARG_OF_PERICENTER = 262.6941
MEAN_ANOMALY   = 97.3023

EPHEMERIS_TYPE = 0
CLASSIFICATION_TYPE = U
NORAD_CAT_ID   = 12904
ELEMENT_SET_NO = 999
REV_AT_EPOCH   = 95809
BSTAR          = .35619E-3
MEAN_MOTION_DOT = .7707E-4
MEAN_MOTION_DDOT = 0

CCSDS_OMM_VERS = 2.0
CREATION_DATE  = 
ORIGINATOR     = 

OBJECT_NAME    = SL-3 R/B
OBJECT_ID      = 1982-013B
CENTER_NAME    = EARTH
REF_FRAME      = TEME
TIME_SYSTEM    = UTC
MEAN_ELEMENT_THEORY = SGP/SGP4

EPOCH          = 2025-11-30T01:52:26.256288
MEAN_MOTION    = 15.20905206
ECCENTRICITY   = .0023395
INCLINATION    = 81.1738
RA_OF_ASC_NODE = 277.4278
ARG_OF_PERICENTER = 151.3921
MEAN_ANOMALY   = 208.8600

EPHEMERIS_TYPE = 0
CLASSIFICATION_TYPE = U
NORAD_CAT_ID   = 13068
ELEMENT_SET_NO = 999
REV_AT_EPOCH   = 38920
BSTAR          = .24201E-3
MEAN_MOTION_DOT = .5415E-4
MEAN_MOTION_DDOT = 0

CCSDS_OMM_VERS = 2.0
CREATION_DATE  = 
ORIGINATOR     = 

OBJECT_NAME    = SL-3 R/B
OBJECT_ID      = 1982-039B
CENTER_NAME    = EARTH
REF_FRAME      = TEME
TIME_SYSTEM    = UTC
MEAN_ELEMENT_THEORY = SGP/SGP4

EPOCH          = 2025-11-30T02:39:22.478112
MEAN_MOTION    = 15.09407401
ECCENTRICITY   = .0030637
INCLINATION    = 81.1742
RA_OF_ASC_NODE = 330.6241
ARG_OF_PERICENTER = 294.8716
MEAN_ANOMALY   = 64.9324

EPHEMERIS_TYPE = 0
CLASSIFICATION_TYPE = U
NORAD_CAT_ID   = 13154
ELEMENT_SET_NO = 999
REV_AT_EPOCH   = 36661
BSTAR          = .21491E-3
MEAN_MOTION_DOT = .3494E-4
MEAN_MOTION_DDOT = 0

