ATLAS CENTAUR R/B       
1 06155U 72065B   25334.22486528  .00001147  00000+0  16038-3 0  9994
2 06155  34.9997 168.5057 0034559 254.0328 105.6563 14.77354264826546
SL-8 R/B                
1 08459U 75112B   25334.10065795  .00000305  00000+0  10896-3 0  9996
2 08459  74.0596 202.1053 0016340 314.9554  45.0274 14.38132581617559
SL-3 R/B                
1 10114U 77057B   25334.10781944  .00013913  00000+0  32268-3 0  9994
2 10114  97.5682 136.9482 0006490 286.0009  74.0523 15.42501904652963
SEASAT 1                
1 10967U 78064A   25333.74609775  .00000417  00000+0  15545-3 0  9993
2 10967 108.0094 275.7756 0001955 251.0084 109.0850 14.46037327492067
SL-14 R/B               
1 11267U 79011B   25334.11056196  .00000709  00000+0  67665-4 0  9990
2 11267  82.5244 191.0211 0016984  34.6347 325.5975 14.91746406513933
SL-8 R/B                
1 11574U 79089B   25334.00413917  .00000334  00000+0  10921-3 0  9998
2 11574  74.0688 275.5495 0014529 115.3362 244.9301 14.42269282421732
SL-14 R/B               
1 11672U 80005B   25333.92399032  .00000757  00000+0  74315-4 0  9995
2 11672  82.5159  41.8526 0016927 132.7026 227.5622 14.90767268461626
SL-8 R/B                
1 12139U 81003B   25334.11936757  .00024925  00000+0  66807-3 0  9995
2 12139  82.9304  21.8158 0281347 163.8247 197.2201 15.06440184299662
SL-3 R/B                
1 12465U 81046B   25334.08428935  .00013401  00000+0  34141-3 0  9997
2 12465  81.2341  49.0711 0019821   8.5976 351.5601 15.39217475423090
SL-3 R/B                
1 12904U 81103B   25334.08744328  .00007707  00000+0  35619-3 0  9999
2 12904  81.1585 330.1709 0011145 262.6941  97.3023 15.19995108958094
SL-3 R/B                
1 13068U 82013B   25334.07808167  .00005415  00000+0  24201-3 0  9992
2 13068  81.1738 277.4278 0023395 151.3921 208.8600 15.20905206389205
SL-3 R/B                
1 13154U 82039B   25334.11067683  .00003494  00000+0  21491-3 0  9994
2 13154  81.1742 330.6241 0030637 294.8716  64.9324 15.09407401366615
